[Satellite]
VERSION=1.1
NAME=FLOCK 2E-12
NICKNAME=FLOCK 2E-12
TLE1=1 41573U 98067JX  17186.27377045  .00013621  00000-0  11355-3 0  9999
TLE2=2 41573  51.6351 283.0315 0002296 220.3430 139.7398 15.70424498 62404
